{
    "links": {
        "self": "http://www.neowsapp.com/rest/v1/neo/3878586?api_key=iIulBulltgU6a56xZRHN4H3l9WmuAYTsLGpBGhQ2"
    },
    "id": "3878586",
    "neo_reference_id": "3878586",
    "name": "(2019 TU2)",
    "designation": "2019 TU2",
    "nasa_jpl_url": "http://ssd.jpl.nasa.gov/sbdb.cgi?sstr=3878586",
    "absolute_magnitude_h": 26.4,
    "estimated_diameter": {
        "kilometers": {
            "estimated_diameter_min": 0.0139493823,
            "estimated_diameter_max": 0.0311917671
        },
        "meters": {
            "estimated_diameter_min": 13.9493822934,
            "estimated_diameter_max": 31.1917670523
        },
        "miles": {
            "estimated_diameter_min": 0.0086677416,
            "estimated_diameter_max": 0.0193816595
        },
        "feet": {
            "estimated_diameter_min": 45.7656914036,
            "estimated_diameter_max": 102.3351970157
        }
    },
    "is_potentially_hazardous_asteroid": false,
    "close_approach_data": [
        {
            "close_approach_date": "2019-03-27",
            "close_approach_date_full": "2019-Mar-27 16:22",
            "epoch_date_close_approach": 1553703720000,
            "relative_velocity": {
                "kilometers_per_second": "7.4720370451",
                "kilometers_per_hour": "26899.3333623502",
                "miles_per_hour": "16714.1996661781"
            },
            "miss_distance": {
                "astronomical": "0.4815881012",
                "lunar": "187.3377713668",
                "kilometers": "72044554.156864444",
                "miles": "44766410.1070555672"
            },
            "orbiting_body": "Earth"
        },
        {
            "close_approach_date": "2019-09-23",
            "close_approach_date_full": "2019-Sep-23 03:44",
            "epoch_date_close_approach": 1569210240000,
            "relative_velocity": {
                "kilometers_per_second": "9.461159888",
                "kilometers_per_hour": "34060.1755969124",
                "miles_per_hour": "21163.668553537"
            },
            "miss_distance": {
                "astronomical": "0.0200497577",
                "lunar": "7.7993557453",
                "kilometers": "2999401.045936099",
                "miles": "1863741.3871082062"
            },
            "orbiting_body": "Earth"
        }
    ],
    "orbital_data": {
        "orbit_id": "1",
        "orbit_determination_date": "2019-10-07 09:12:07",
        "first_observation_date": "2019-10-05",
        "last_observation_date": "2019-10-06",
        "data_arc_in_days": 1,
        "observations_used": 11,
        "orbit_uncertainty": "8",
        "minimum_orbit_intersection": ".00520662",
        "jupiter_tisserand_invariant": "4.879",
        "epoch_osculation": "2458762.5",
        "eccentricity": ".3355031017934982",
        "semi_major_axis": "1.324209011275089",
        "inclination": "2.693934044158342",
        "ascending_node_longitude": "171.3355724845802",
        "orbital_period": "556.587226612721",
        "perihelion_distance": ".8799327805693954",
        "perihelion_argument": "126.9280215771461",
        "aphelion_distance": "1.768485241980783",
        "perihelion_time": "2458701.674450750870",
        "mean_anomaly": "39.34189769849514",
        "mean_motion": ".6467988893508899",
        "equinox": "J2000",
        "orbit_class": {
            "orbit_class_type": "APO",
            "orbit_class_description": "Near-Earth asteroid orbits which cross the Earth’s orbit similar to that of 1862 Apollo",
            "orbit_class_range": "a (semi-major axis) > 1.0 AU; q (perihelion) < 1.017 AU"
        }
    },
    "is_sentry_object": false
}